#dV2007  4 12  0  0  0.00000000     289 ORBIT J2000 BHN ESOC                    
## 1422 345600.00000000   900.00000000 54202 0.0000000000000                    
+    2   G01G02  0  0  0  0  0  0  0  0  0  0  0  0  0  0  0                    
+          0  0  0  0  0  0  0  0  0  0  0  0  0  0  0  0  0                    
+          0  0  0  0  0  0  0  0  0  0  0  0  0  0  0  0  0                    
+          0  0  0  0  0  0  0  0  0  0  0  0  0  0  0  0  0                    
+          0  0  0  0  0  0  0  0  0  0  0  0  0  0  0  0  0                    
++         8  8  0  0  0  0  0  0  0  0  0  0  0  0  0  0  0                    
++         0  0  0  0  0  0  0  0  0  0  0  0  0  0  0  0  0                    
++         0  0  0  0  0  0  0  0  0  0  0  0  0  0  0  0  0                    
++         0  0  0  0  0  0  0  0  0  0  0  0  0  0  0  0  0                    
++         0  0  0  0  0  0  0  0  0  0  0  0  0  0  0  0  0                    
%c M  cc GPS ccc cccc cccc cccc cccc ccccc ccccc ccccc ccccc                    
%c cc cc ccc ccc cccc cccc cccc cccc ccccc ccccc ccccc ccccc                    
%f  0.0000000  0.000000000  0.00000000000  0.000000000000000                    
%f  0.0000000  0.000000000  0.00000000000  0.000000000000000                    
%i    0    0    0    0      0      0      0      0         0                    
%i    0    0    0    0      0      0      0      0         0                    
/* CCCCCCCCCCCCCCCCCCCCCCCCCCCCCCCCCCCCCCCCCCCCCCCCCCCCCCCCCCCCCCCCCCCCCCCCCCCCC
/* CCCCCCCCCCCCCCCCCCCCCCCCCCCCCCCCCCCCCCCCCCCCCCCCCCCCCCCCCCCCCCCCCCCCCCCCCCCCC
/* CCCCCCCCCCCCCCCCCCCCCCCCCCCCCCCCCCCCCCCCCCCCCCCCCCCCCCCCCCCCCCCCCCCCCCCCCCCCC
/* PCV:IGS14      OL/AL:EOT11A   NONE     YN ORB:CoN CLK:CoN                    
*  2007  4 14 17  0  0.00000000                                                 
PG01 -11900.995155 -14933.125491 -18230.673228 999999.999999                    
VG01  34087.327874  -4627.545744 -18317.311754 999999.999999                    
PG02  10637.971864  24048.611284   2217.613240 999999.999999                    
VG02 -19753.214659  11900.956118 -31438.042950 999999.999999                    
*  2007  4 14 17 15  0.00000000                                                 
PG01  -8737.829280 -15217.546277 -19714.648004 999999.999999                    
VG01  36102.682420  -1683.266868 -14611.142614 999999.999999                    
PG02   8772.141865  24905.794209   -622.981460 999999.999999                    
VG02 -21648.202770   7121.775986 -31593.868774 999999.999999                    
*  2007  4 14 17 30  0.00000000                                                 
PG01  -5421.478026 -15235.169304 -20852.912447 999999.999999                    
VG01  37486.234769   1292.462177 -10646.257473 999999.999999                    
PG02   6752.806717  25327.191862  -3452.696178 999999.999999                    
VG02 -23159.725391   2231.329112 -31197.133867 999999.999999                    
*  2007  4 14 17 45  0.00000000                                                 
PG01  -2010.033698 -14985.554479 -21625.327897 999999.999999                    
VG01  38212.637380   4246.489340  -6493.276697 999999.999999                    
PG02   4615.638936  25306.711270  -6222.185288 999999.999999                    
VG02 -24263.249837  -2683.210901 -30258.047238 999999.999999                    
*  2007  4 14 18  0  0.00000000                                                 
PG01   1436.673899 -14473.038107 -22018.283110 999999.999999                    
VG01  38268.695172   7125.999995  -2226.394895 999999.999999                    
PG02   2398.175232  24846.090436  -8883.462125 999999.999999                    
VG02 -24941.919028  -7535.274378 -28796.512203 999999.999999                    
*  2007  4 14 18 15  0.00000000                                                 
PG01   4858.185569 -13706.655273 -22024.950387 999999.999999                    
VG01  37653.639410   9879.564429   2078.086779 999999.999999                    
PG02    139.118409  23954.770274 -11390.745335 999999.999999                    
VG02 -25186.684702 -12240.516138 -26841.516491 999999.999999                    
*  2007  4 14 18 30  0.00000000                                                 
PG01   8194.533059 -12699.969129 -21645.407248 999999.999999                    
VG01  36379.125129  12458.153853   6343.274174 999999.999999                    
PG02  -2122.365094  22649.625944 -13701.242944 999999.999999                    
VG02 -24996.273173 -16718.313913 -24430.363482 999999.999999                    
*  2007  4 14 18 45  0.00000000                                                 
PG01  11387.346744 -11470.811176 -20886.621322 999999.999999                    
VG01  34468.953671  14816.098263  10493.199354 999999.999999                    
PG02  -4347.337594  20954.569872 -15775.861328 999999.999999                    
VG02 -24376.998744 -20893.117452 -21607.777387 999999.999999                    
*  2007  4 14 19  0  0.00000000                                                 
PG01  14380.926336 -10040.938889 -19762.299770 999999.999999                    
VG01  31958.530872  16911.961732  14454.305552 999999.999999                    
PG02  -6497.759593  18900.040811 -17579.829207 999999.999999                    
VG02 -23342.443336 -24695.630015 -18424.915341 999999.999999                    
*  2007  4 14 19 15  0.00000000                                                 
PG01  17123.251621  -8435.619072 -18292.608021 999999.999999                    
VG01  28894.079873  18709.314015  18156.860048 999999.999999                    
PG02  -8537.125124  16522.394474 -19083.229723 999999.999999                    
VG02 -21913.022795 -28063.812515 -14938.317772 999999.999999                    
*  2007  4 14 19 30  0.00000000                                                 
PG01  19566.912256  -6683.147106 -16503.765900 999999.999999                    
VG01  25331.634852  20177.381306  21536.260618 999999.999999                    
PG02 -10431.053740  13863.211919 -20261.436357 999999.999999                    
VG02 -20115.460886 -30943.708026 -11208.825461 999999.999999                    
*  2007  4 14 19 45  0.00000000                                                 
PG01  21669.938348  -4814.313555 -14427.532097 999999.999999                    
VG01  21335.847886  21291.563571  24534.205999 999999.999999                    
PG02 -12147.831788  10968.541648 -21095.450816 999999.999999                    
VG02 -17982.191180 -33290.090662  -7300.487677 999999.999999                    
*  2007  4 14 20  0  0.00000000                                                 
PG01  23396.516584  -2861.830516 -12100.590331 999999.999999                    
VG01  16978.645479  22033.810696  27099.706561 999999.999999                    
PG02 -13658.897298   7888.090930 -21572.143013 999999.999999                    
VG02 -15550.705394 -35066.947516  -3279.481315 999999.999999                    
*  2007  4 14 20 15  0.00000000                                                 
PG01  24717.580158   -859.730617  -9563.852411 999999.999999                    
VG01  12337.773801  22392.854503  29189.917717 999999.999999                    
PG02 -14939.264442   4674.380804 -21684.394844 999999.999999                    
VG02 -12862.864311 -36247.805449    786.943670 999999.999999                    
*  2007  4 14 20 30  0.00000000                                                 
PG01  25611.264245   1157.248455  -6861.694718 999999.999999                    
VG01   7495.272475  22364.298323  30770.785178 999999.999999                    
PG02 -15967.884787   1381.878162 -21431.150686 999999.999999                    
VG02  -9964.184643 -36815.916154   4831.481597 999999.999999                    
*  2007  4 14 20 45  0.00000000                                                 
PG01  26063.222368   3154.281251  -4041.145254 999999.999999                    
VG01   2535.915816  21950.569924  31817.497705 999999.999999                    
PG02 -16727.943702  -1933.882957 -20817.378266 999999.999999                    
VG02  -6903.112353 -36764.313153   8787.744141 999999.999999                    
*  2007  4 14 21  0  0.00000000                                                 
PG01  26066.802403   5097.061838  -1151.038572 999999.999999                    
VG01  -2454.341982  21160.747170  32314.748986 999999.999999                    
PG02 -17207.091050  -5217.179935 -19853.944106 999999.999999                    
VG02  -3730.290152 -36095.753532  12591.185255 999999.999999                    
*  2007  4 14 21 15  0.00000000                                                 
PG01  25623.084059   6952.390084   1758.844518 999999.999999                    
VG01  -7389.884900  20010.268463  32256.815645 999999.999999                    
PG02 -17397.605892  -8412.970126 -18557.407966 999999.999999                    
VG02   -497.824449 -34822.555479  16179.976428 999999.999999                    
*  2007  4 14 21 30  0.00000000                                                 
PG01  24740.782481   8688.727228   4638.636405 999999.999999                    
VG01 -12186.888095  18520.542006  31647.462776 999999.999999                    
PG02 -17296.495333 -11467.740444 -16949.740735 999999.999999                    
VG02   2741.444932 -32966.340437  19495.832227 999999.999999                    
*  2007  4 14 21 45  0.00000000                                                 
PG01  23436.024887  10276.712295   7439.226414 999999.999999                    
VG01 -16764.682778  16718.468967  30499.691687 999999.999999                    
PG02 -16905.527833 -14330.329690 -15057.970257 999999.999999                    
VG02   5934.670445 -30557.686056  22484.786742 999999.999999                    
EOF                                                                             
